NORAD_CAT_ID,OBJECT_NAME,OBJECT_TYPE,EPOCH,MEAN_MOTION,ECCENTRICITY,INCLINATION,RA_OF_ASC_NODE,ARG_OF_PERICENTER,MEAN_ANOMALY,BSTAR,MEAN_MOTION_DOT,MEAN_MOTION_DDOT,TLE_LINE0,TLE_LINE1,TLE_LINE2,SEMIMAJOR_AXIS,PERIOD,APOGEE,PERIGEE,DECAYED
50840.0,STARLINK-3295,PAYLOAD,2022-05-10 08:00:01,15.08840297,0.000184,53.2153,341.0675,45.0944,179.9526,-0.0013148,-0.00021153,0.0,0 STARLINK-3295,1 50840U 22001AP  22130.33334491 -.00021153  00000-0 -13148-2 0  9993,2 50840  53.2153 341.0675 0001840  45.0944 179.9526 15.08840297 20288,6917.879,95.438,541.0169999999998,538.472,0.0
50840.0,STARLINK-3295,PAYLOAD,2022-05-10 14:00:01,15.08830186,0.0001855,53.2154,339.945,50.3558,93.3806,0.0013786,0.00021715,0.0,0 STARLINK-3295,1 50840U 22001AP  22130.58334491  .00021715  00000-0  13786-2 0  9990,2 50840  53.2154 339.9450 0001855  50.3558  93.3806 15.08830186  3605,6917.91,95.438,541.059,538.492,0.0
50840.0,STARLINK-3295,PAYLOAD,2022-05-10 18:00:00,15.0884802,0.0001927,53.2153,339.1978,47.2832,282.2419,-0.0014005,-0.00022513,0.0,0 STARLINK-3295,1 50840U 22001AP  22130.75001157 -.00022513  00000-0 -14005-2 0  9993,2 50840  53.2153 339.1978 0001927  47.2832 282.2419 15.08848020 20357,6917.856,95.437,541.054,538.388,0.0
50840.0,STARLINK-3295,PAYLOAD,2022-05-11 22:00:00,15.08818758,0.0002022,53.2147,333.9614,43.677,146.4121,0.0015821,0.00024966,0.0,0 STARLINK-3295,1 50840U 22001AP  22131.91667824  .00024966  00000-0  15821-2 0  9990,2 50840  53.2147 333.9614 0002022  43.6770 146.4121 15.08818758 20522,6917.945,95.439,541.2090000000002,538.4119999999998,0.0
50840.0,STARLINK-3295,PAYLOAD,2022-05-12 14:00:01,15.08867791,0.0001866,53.2146,330.9667,48.8055,164.4647,-0.0012844,-0.00020687,0.0,0 STARLINK-3295,1 50840U 22001AP  22132.58334491 -.00020687  00000-0 -12844-2 0  9995,2 50840  53.2146 330.9667 0001866  48.8055 164.4647 15.08867791  1303,6917.795,95.436,540.951,538.37,0.0
50840.0,STARLINK-3295,PAYLOAD,2022-05-12 22:00:00,15.08820826,0.0002032,53.2145,329.4719,41.4552,183.4425,0.002305,0.00036568,0.0,0 STARLINK-3295,1 50840U 22001AP  22132.91667824  .00036568  00000-0  23050-2 0  9995,2 50840  53.2145 329.4719 0002032  41.4552 183.4425 15.08820826  1303,6917.939,95.439,541.21,538.398,0.0
50840.0,STARLINK-3295,PAYLOAD,2022-05-13 06:00:00,15.08868637,0.0001856,53.2145,327.9739,41.1985,195.2844,-0.0040279,-0.00063875,0.0,0 STARLINK-3295,1 50840U 22001AP  22133.25001157 -.00063875  00000-0 -40279-2 0  9999,2 50840  53.2145 327.9739 0001856  41.1985 195.2844 15.08868637 20723,6917.793000000002,95.436,540.942,538.374,0.0
50840.0,STARLINK-3295,PAYLOAD,2022-05-13 14:00:01,15.08832811,0.0001801,53.2146,326.4771,44.2614,203.8192,0.000532,8.187e-05,0.0,0 STARLINK-3295,1 50840U 22001AP  22133.58334491  .00008187  00000-0  53200-3 0  9997,2 50840  53.2146 326.4771 0001801  44.2614 203.8192 15.08832811  1307,6917.901999999999,95.438,541.013,538.521,0.0
50840.0,STARLINK-3295,PAYLOAD,2022-05-13 22:00:00,15.08824521,0.0002008,53.2146,324.9823,38.5153,221.1573,0.0013257,0.00020865,0.0,0 STARLINK-3295,1 50840U 22001AP  22133.91667824  .00020865  00000-0  13257-2 0  9997,2 50840  53.2146 324.9823 0002008  38.5153 221.1573 15.08824521 20836,6917.928000000001,95.439,541.182,538.404,0.0
50840.0,STARLINK-3295,PAYLOAD,2022-05-14 14:00:01,15.08844329,0.0001789,53.2149,321.9874,41.3821,241.4636,0.00043679,6.671e-05,0.0,0 STARLINK-3295,1 50840U 22001AP  22134.58334491  .00006671  00000-0  43679-3 0  9993,2 50840  53.2149 321.9874 0001789  41.3821 241.4636 15.08844329  1305,6917.8669999999975,95.437,540.97,538.495,0.0
50840.0,STARLINK-3295,PAYLOAD,2022-05-14 22:00:00,15.08833352,0.000203,53.2149,320.4926,37.1309,257.322,0.0023497,0.00037299,0.0,0 STARLINK-3295,1 50840U 22001AP  22134.91667824  .00037299  00000-0  23497-2 0  9994,2 50840  53.2149 320.4926 0002030  37.1309 257.3220 15.08833352 20985,6917.901,95.438,541.17,538.361,0.0
50840.0,STARLINK-3295,PAYLOAD,2022-05-15 14:00:01,15.08836897,0.0001832,53.2152,317.4977,41.9605,275.7558,-0.0008062999999999,-0.00013097,0.0,0 STARLINK-3295,1 50840U 22001AP  22135.58335648 -.00013097  00000-0 -80630-3 0  9999,2 50840  53.2152 317.4977 0001832  41.9605 275.7558 15.08836897 21089,6917.89,95.438,541.0219999999998,538.488,0.0
50840.0,STARLINK-3295,PAYLOAD,2022-05-15 22:00:00,15.08813083,0.000204,53.215,316.0028,37.0084,292.2398,0.0031308,0.00049855,0.0,0 STARLINK-3295,1 50840U 22001AP  22135.91667824  .00049855  00000-0  31308-2 0  9996,2 50840  53.2150 316.0028 0002040  37.0084 292.2398 15.08813083  1309,6917.9630000000025,95.439,541.239,538.4159999999998,0.0
50840.0,STARLINK-3295,PAYLOAD,2022-05-16 14:00:01,15.08846608,0.0001883,53.2152,313.0083,43.5155,308.8943,-0.0011588,-0.00018687,0.0,0 STARLINK-3295,1 50840U 22001AP  22136.58334491 -.00018687  00000-0 -11588-2 0  9990,2 50840  53.2152 313.0083 0001883  43.5155 308.8943 15.08846608 21237,6917.86,95.437,541.028,538.423,0.0
50840.0,STARLINK-3295,PAYLOAD,2022-05-16 22:00:00,15.08810232,0.0002034,53.215,311.5132,37.6455,326.3703,0.001888,0.00029863,0.0,0 STARLINK-3295,1 50840U 22001AP  22136.91667824  .00029863  00000-0  18880-2 0  9994,2 50840  53.2150 311.5132 0002034  37.6455 326.3703 15.08810232  1308,6917.971,95.439,541.243,538.429,0.0
50840.0,STARLINK-3295,PAYLOAD,2022-05-17 12:00:00,15.08841775,0.0001784,53.215,308.8926,42.9841,251.2925,0.0013017,0.0002049,0.0,0 STARLINK-3295,1 50840U 22001AP  22137.50001157  .00020490  00000-0  13017-2 0  9995,2 50840  53.2150 308.8926 0001784  42.9841 251.2925 15.08841775 21374,6917.875,95.437,540.974,538.506,0.0
50840.0,STARLINK-3295,PAYLOAD,2022-05-17 14:00:01,15.08862604,0.0001821,53.2151,308.519,40.9526,346.282,-0.0013181,-0.00021218,0.0,0 STARLINK-3295,1 50840U 22001AP  22137.58335648 -.00021218  00000-0 -13181-2 0  9991,2 50840  53.2151 308.5190 0001821  40.9526 346.2820 15.08862604  1309,6917.811,95.436,540.936,538.4169999999998,0.0
50840.0,STARLINK-3295,PAYLOAD,2022-05-17 22:00:01,15.08833781,0.000198,53.2147,307.0238,35.3929,3.4683,0.0011403,0.00017903,0.0,0 STARLINK-3295,1 50840U 22001AP  22137.91668981  .00017903  00000-0  11403-2 0  9996,2 50840  53.2147 307.0238 0001980  35.3929   3.4683 15.08833781  1305,6917.899,95.438,541.134,538.395,0.0
50840.0,STARLINK-3295,PAYLOAD,2022-05-18 06:00:00,15.08817674,0.0001819,53.2146,305.5256,39.7114,10.6939,0.0014731,0.0002322,0.0,0 STARLINK-3295,1 50840U 22001AP  22138.25001157  .00023220  00000-0  14731-2 0  9996,2 50840  53.2146 305.5256 0001819  39.7114  10.6939 15.08817674 21480,6917.949000000001,95.439,541.072,538.555,0.0
50840.0,STARLINK-3295,PAYLOAD,2022-05-18 14:00:01,15.08855106,0.0001883,53.2147,304.0298,41.1724,20.7981,-0.0015591,-0.00025026,0.0,0 STARLINK-3295,1 50840U 22001AP  22138.58334491 -.00025026  00000-0 -15591-2 0  9995,2 50840  53.2147 304.0298 0001883  41.1724  20.7981 15.08855106  1306,6917.834,95.437,541.002,538.3969999999998,0.0
50840.0,STARLINK-3295,PAYLOAD,2022-05-18 22:00:00,15.08825369,0.0002037,53.2144,302.5346,35.4445,38.1359,-0.00021272,-3.671e-05,0.0,0 STARLINK-3295,1 50840U 22001AP  22138.91667824 -.00003671  00000-0 -21272-3 0  9997,2 50840  53.2144 302.5346 0002037  35.4445  38.1359 15.08825369  1308,6917.925,95.438,541.1990000000002,538.381,0.0
50840.0,STARLINK-3295,PAYLOAD,2022-05-19 06:00:00,15.08795719,0.0001879,53.2144,301.0364,40.0628,45.1034,0.0022668,0.00035929,0.0,0 STARLINK-3295,1 50840U 22001AP  22139.25001157  .00035929  00000-0  22668-2 0  9994,2 50840  53.2144 301.0364 0001879  40.0628  45.1034 15.08795719 21631,6918.016,95.44,541.181,538.581,0.0
50840.0,STARLINK-3295,PAYLOAD,2022-05-19 14:00:01,15.08836512,0.0001981,53.2145,299.5407,41.2187,55.559,-0.00080275,-0.0001304,0.0,0 STARLINK-3295,1 50840U 22001AP  22139.58335648 -.00013040  00000-0 -80275-3 0  9996,2 50840  53.2145 299.5407 0001981  41.2187  55.5590 15.08836512  1309,6917.891,95.438,541.126,538.386,0.0
50840.0,STARLINK-3295,PAYLOAD,2022-05-19 22:00:00,15.08831096,0.0002121,53.2143,298.0455,34.9596,73.3481,0.0011475,0.00018017,0.0,0 STARLINK-3295,1 50840U 22001AP  22139.91667824  .00018017  00000-0  11475-2 0  9999,2 50840  53.2143 298.0455 0002121  34.9596  73.3481 15.08831096  1303,6917.908,95.438,541.24,538.305,0.0
50840.0,STARLINK-3295,PAYLOAD,2022-05-20 06:00:00,15.08810217,0.0001902,53.2146,296.5474,36.44,83.4702,0.0033211,0.00052922,0.0,0 STARLINK-3295,1 50840U 22001AP  22140.25001157  .00052922  00000-0  33211-2 0  9994,2 50840  53.2146 296.5474 0001902  36.4400  83.4702 15.08810217 21781,6917.971,95.439,541.1519999999998,538.521,0.0
50840.0,STARLINK-3295,PAYLOAD,2022-05-20 14:00:01,15.08876036,0.0002006,53.2146,295.0516,37.3177,94.1698,-0.0036327,-0.00057698,0.0,0 STARLINK-3295,1 50840U 22001AP  22140.58334491 -.00057698  00000-0 -36327-2 0  9998,2 50840  53.2146 295.0516 0002006  37.3177  94.1698 15.08876036  1309,6917.77,95.435,541.023,538.248,0.0
50840.0,STARLINK-3295,PAYLOAD,2022-05-20 22:00:00,15.08824503,0.0002172,53.2144,293.5562,32.4116,110.6958,0.00066788,0.00010353,0.0,0 STARLINK-3295,1 50840U 22001AP  22140.91667824  .00010353  00000-0  66788-3 0  9994,2 50840  53.2144 293.5562 0002172  32.4116 110.6958 15.08824503 21884,6917.928000000001,95.439,541.295,538.29,0.0
50840.0,STARLINK-3295,PAYLOAD,2022-05-21 06:00:00,15.08807505,0.0002,53.2146,292.058,36.4489,118.2503,0.0036822,0.00058751,0.0,0 STARLINK-3295,1 50840U 22001AP  22141.25001157  .00058751  00000-0  36822-2 0  9992,2 50840  53.2146 292.0580 0002000  36.4489 118.2503 15.08807505  1305,6917.98,95.44,541.2280000000002,538.461,0.0
50840.0,STARLINK-3295,PAYLOAD,2022-05-21 14:00:01,15.088721,0.000209,53.2148,290.5624,36.3367,129.998,-0.0036129,-0.00057382,0.0,0 STARLINK-3295,1 50840U 22001AP  22141.58335648 -.00057382  00000-0 -36129-2 0  9994,2 50840  53.2148 290.5624 0002090  36.3367 129.9980 15.08872100  1303,6917.781999999997,95.436,541.0930000000002,538.201,0.0
